[Satellite]
VERSION=1.1
NAME=AEROCUBE 8B
NICKNAME=AEROCUBE 8B
TLE1=1 40660U 15025K   19317.34292342  .00013323  00000-0  16500-3 0  9996
TLE2=2 40660  55.0157 212.2533 0118926 336.7348  22.8328 15.52392744  9792
STATUS=0
